start=new Date('2022-12-20T00:00:00.000Z').valueOf();
sats=[{"TLE_LINE2":"2 45221  53.0545 245.1496 0001716  68.5497 291.5674 15.06405124157233","MEAN_ANOMALY":"291.5674","COUNTRY_CODE":"US","SEMIMAJOR_AXIS":"6925.333","OBJECT_ID":"2020-012AV","EPHEMERIS_TYPE":"0","ECCENTRICITY":"0.00017160","DECAY_DATE":null,"CLASSIFICATION_TYPE":"U","FILE":"3711703","GP_ID":"220943471","MEAN_MOTION":"15.06405124","PERIAPSIS":"546.009","MEAN_MOTION_DOT":"0.00002927","LAUNCH_DATE":"2020-02-17","MEAN_MOTION_DDOT":"0.0000000000000","REF_FRAME":"TEME","RA_OF_ASC_NODE":"245.1496","CENTER_NAME":"EARTH","REV_AT_EPOCH":"15723","TIME_SYSTEM":"UTC","OBJECT_TYPE":"PAYLOAD","BSTAR":"0.00021532000000","APOAPSIS":"548.386","NORAD_CAT_ID":"45221","ARG_OF_PERICENTER":"68.5497","EPOCH":"2022-12-19T20:31:37.391232","OBJECT_NAME":"STARLINK-1189","MEAN_ELEMENT_THEORY":"SGP4","PERIOD":"95.592","ELEMENT_SET_NO":"999","RCS_SIZE":"LARGE","SITE":"AFETR","TLE_LINE1":"1 45221U 20012AV  22353.85529388  .00002927  00000-0  21532-3 0  9998","INCLINATION":"53.0545"},{"MEAN_MOTION_DDOT":"0.0000000000000","REF_FRAME":"TEME","RA_OF_ASC_NODE":"245.4176","LAUNCH_DATE":"2020-02-17","CENTER_NAME":"EARTH","REV_AT_EPOCH":"15816","TIME_SYSTEM":"UTC","TLE_LINE2":"2 45222  53.0552 245.4176 0001604  73.6726 286.4439 15.06408289158168","MEAN_ANOMALY":"286.4439","COUNTRY_CODE":"US","EPHEMERIS_TYPE":"0","SEMIMAJOR_AXIS":"6925.323","OBJECT_ID":"2020-012AW","DECAY_DATE":null,"ECCENTRICITY":"0.00016040","FILE":"3711774","GP_ID":"220965367","PERIAPSIS":"546.077","MEAN_MOTION":"15.06408289","MEAN_MOTION_DOT":"0.00003677","CLASSIFICATION_TYPE":"U","ELEMENT_SET_NO":"999","RCS_SIZE":"LARGE","MEAN_ELEMENT_THEORY":"SGP4","OBJECT_NAME":"STARLINK-1191","PERIOD":"95.592","TLE_LINE1":"1 45222U 20012AW  22353.79631992  .00003677  00000-0  26554-3 0  9999","SITE":"AFETR","INCLINATION":"53.0552","BSTAR":"0.00026554000000","OBJECT_TYPE":"PAYLOAD","ARG_OF_PERICENTER":"73.6726","EPOCH":"2022-12-19T19:06:42.041088","NORAD_CAT_ID":"45222","APOAPSIS":"548.299"},{"APOAPSIS":"548.365","NORAD_CAT_ID":"45223","ARG_OF_PERICENTER":"72.2863","EPOCH":"2022-12-19T02:06:15.761952","BSTAR":"0.00015107000000","OBJECT_TYPE":"PAYLOAD","INCLINATION":"53.0540","SITE":"AFETR","TLE_LINE1":"1 45223U 20012AX  22353.08768243  .00001969  00000-0  15107-3 0  9996","MEAN_ELEMENT_THEORY":"SGP4","OBJECT_NAME":"STARLINK-1212","PERIOD":"95.593","ELEMENT_SET_NO":"999","RCS_SIZE":"LARGE","CLASSIFICATION_TYPE":"U","GP_ID":"220931456","FILE":"3711365","MEAN_MOTION":"15.06390827","PERIAPSIS":"546.118","MEAN_MOTION_DOT":"0.00001969","ECCENTRICITY":"0.00016220","DECAY_DATE":null,"SEMIMAJOR_AXIS":"6925.377","OBJECT_ID":"2020-012AX","EPHEMERIS_TYPE":"0","TLE_LINE2":"2 45223  53.0540 248.5690 0001622  72.2863 287.8303 15.06390827158060","COUNTRY_CODE":"US","MEAN_ANOMALY":"287.8303","TIME_SYSTEM":"UTC","REV_AT_EPOCH":"15806","CENTER_NAME":"EARTH","LAUNCH_DATE":"2020-02-17","MEAN_MOTION_DDOT":"0.0000000000000","RA_OF_ASC_NODE":"248.5690","REF_FRAME":"TEME"},{"ARG_OF_PERICENTER":"75.0485","EPOCH":"2022-12-19T20:05:04.828416","APOAPSIS":"548.142","NORAD_CAT_ID":"45225","BSTAR":"0.00016531000000","OBJECT_TYPE":"PAYLOAD","ELEMENT_SET_NO":"999","RCS_SIZE":"LARGE","MEAN_ELEMENT_THEORY":"SGP4","OBJECT_NAME":"STARLINK-1215","PERIOD":"95.591","INCLINATION":"53.0557","TLE_LINE1":"1 45225U 20012AZ  22353.83686144  .00002182  00000-0  16531-3 0  9990","SITE":"AFETR","EPHEMERIS_TYPE":"0","SEMIMAJOR_AXIS":"6925.310","OBJECT_ID":"2020-012AZ","TLE_LINE2":"2 45225  53.0557 245.2301 0001396  75.0485 285.0659 15.06412598157234","COUNTRY_CODE":"US","MEAN_ANOMALY":"285.0659","GP_ID":"220943517","MEAN_MOTION":"15.06412598","FILE":"3711706","PERIAPSIS":"546.208","MEAN_MOTION_DOT":"0.00002182","CLASSIFICATION_TYPE":"U","DECAY_DATE":null,"ECCENTRICITY":"0.00013960","CENTER_NAME":"EARTH","REV_AT_EPOCH":"15723","MEAN_MOTION_DDOT":"0.0000000000000","REF_FRAME":"TEME","RA_OF_ASC_NODE":"245.2301","LAUNCH_DATE":"2020-02-17","TIME_SYSTEM":"UTC"},{"TIME_SYSTEM":"UTC","CENTER_NAME":"EARTH","REV_AT_EPOCH":"15720","MEAN_MOTION_DDOT":"0.0000000000000","REF_FRAME":"TEME","RA_OF_ASC_NODE":"245.2046","LAUNCH_DATE":"2020-02-17","GP_ID":"220943516","FILE":"3711706","MEAN_MOTION":"15.06399078","PERIAPSIS":"546.296","MEAN_MOTION_DOT":"0.00001874","CLASSIFICATION_TYPE":"U","DECAY_DATE":null,"ECCENTRICITY":"0.00013290","EPHEMERIS_TYPE":"0","SEMIMAJOR_AXIS":"6925.351","OBJECT_ID":"2020-012BA","TLE_LINE2":"2 45226  53.0543 245.2046 0001329  82.3880 277.7260 15.06399078157202","MEAN_ANOMALY":"277.7260","COUNTRY_CODE":"US","INCLINATION":"53.0543","TLE_LINE1":"1 45226U 20012BA  22353.84423255  .00001874  00000-0  14466-3 0  9996","SITE":"AFETR","ELEMENT_SET_NO":"999","RCS_SIZE":"LARGE","OBJECT_NAME":"STARLINK-1217","MEAN_ELEMENT_THEORY":"SGP4","PERIOD":"95.592","ARG_OF_PERICENTER":"82.3880","EPOCH":"2022-12-19T20:15:41.692320","NORAD_CAT_ID":"45226","APOAPSIS":"548.137","OBJECT_TYPE":"PAYLOAD","BSTAR":"0.00014466000000"},{"TIME_SYSTEM":"UTC","CENTER_NAME":"EARTH","REV_AT_EPOCH":"15807","REF_FRAME":"TEME","MEAN_MOTION_DDOT":"0.0000000000000","RA_OF_ASC_NODE":"245.7058","LAUNCH_DATE":"2020-02-17","GP_ID":"220965868","PERIAPSIS":"546.000","FILE":"3711774","MEAN_MOTION":"15.06407598","MEAN_MOTION_DOT":"0.00007042","CLASSIFICATION_TYPE":"U","DECAY_DATE":null,"ECCENTRICITY":"0.00017190","EPHEMERIS_TYPE":"0","SEMIMAJOR_AXIS":"6925.325","OBJECT_ID":"2020-012BB","TLE_LINE2":"2 45227  53.0539 245.7058 0001719  68.8443 291.2729 15.06407598158077","COUNTRY_CODE":"US","MEAN_ANOMALY":"291.2729","INCLINATION":"53.0539","TLE_LINE1":"1 45227U 20012BB  22353.73366099  .00007042  00000-0  49109-3 0  9992","SITE":"AFETR","ELEMENT_SET_NO":"999","RCS_SIZE":"LARGE","MEAN_ELEMENT_THEORY":"SGP4","OBJECT_NAME":"STARLINK-1221","PERIOD":"95.592","ARG_OF_PERICENTER":"68.8443","EPOCH":"2022-12-19T17:36:28.309536","NORAD_CAT_ID":"45227","APOAPSIS":"548.381","OBJECT_TYPE":"PAYLOAD","BSTAR":"0.00049109000000"},{"ECCENTRICITY":"0.00016340","DECAY_DATE":null,"CLASSIFICATION_TYPE":"U","MEAN_MOTION_DOT":"0.00000975","PERIAPSIS":"546.119","GP_ID":"220930957","FILE":"3711365","MEAN_MOTION":"15.06387827","MEAN_ANOMALY":"300.4829","COUNTRY_CODE":"US","TLE_LINE2":"2 45228  53.0541 248.6607 0001634  59.6321 300.4829 15.06387827157943","OBJECT_ID":"2020-012BC","SEMIMAJOR_AXIS":"6925.386","EPHEMERIS_TYPE":"0","TIME_SYSTEM":"UTC","LAUNCH_DATE":"2020-02-17","MEAN_MOTION_DDOT":"0.0000000000000","RA_OF_ASC_NODE":"248.6607","REF_FRAME":"TEME","CENTER_NAME":"EARTH","REV_AT_EPOCH":"15794","BSTAR":"0.00008439300000","OBJECT_TYPE":"PAYLOAD","APOAPSIS":"548.382","NORAD_CAT_ID":"45228","EPOCH":"2022-12-19T01:46:22.995264","ARG_OF_PERICENTER":"59.6321","TLE_LINE1":"1 45228U 20012BC  22353.07387726  .00000975  00000-0  84393-4 0  9993","SITE":"AFETR","INCLINATION":"53.0541","PERIOD":"95.593","OBJECT_NAME":"STARLINK-1222","MEAN_ELEMENT_THEORY":"SGP4","RCS_SIZE":"LARGE","ELEMENT_SET_NO":"999"},{"MEAN_MOTION_DOT":"0.00006727","FILE":"3711774","GP_ID":"220964371","PERIAPSIS":"546.074","MEAN_MOTION":"15.06414502","CLASSIFICATION_TYPE":"U","DECAY_DATE":null,"ECCENTRICITY":"0.00015810","EPHEMERIS_TYPE":"0","OBJECT_ID":"2020-012BD","SEMIMAJOR_AXIS":"6925.304","MEAN_ANOMALY":"289.7796","COUNTRY_CODE":"US","TLE_LINE2":"2 45229  53.0524 245.2550 0001581  70.3363 289.7796 15.06414502158069","TIME_SYSTEM":"UTC","CENTER_NAME":"EARTH","REV_AT_EPOCH":"15806","RA_OF_ASC_NODE":"245.2550","MEAN_MOTION_DDOT":"0.0000000000000","REF_FRAME":"TEME","LAUNCH_DATE":"2020-02-17","EPOCH":"2022-12-19T19:59:46.532544","ARG_OF_PERICENTER":"70.3363","NORAD_CAT_ID":"45229","APOAPSIS":"548.264","OBJECT_TYPE":"PAYLOAD","BSTAR":"0.00046992000000","INCLINATION":"53.0524","TLE_LINE1":"1 45229U 20012BD  22353.83317746  .00006727  00000-0  46992-3 0  9996","SITE":"AFETR","RCS_SIZE":"LARGE","ELEMENT_SET_NO":"999","PERIOD":"95.591","OBJECT_NAME":"STARLINK-1226","MEAN_ELEMENT_THEORY":"SGP4"},{"PERIOD":"95.592","MEAN_ELEMENT_THEORY":"SGP4","OBJECT_NAME":"STARLINK-1227","RCS_SIZE":"LARGE","ELEMENT_SET_NO":"999","TLE_LINE1":"1 45230U 20012BE  22353.69679111  .00001795  00000-0  13932-3 0  9997","SITE":"AFETR","INCLINATION":"53.0548","BSTAR":"0.00013932000000","OBJECT_TYPE":"PAYLOAD","NORAD_CAT_ID":"45230","APOAPSIS":"548.045","EPOCH":"2022-12-19T16:43:22.751904","ARG_OF_PERICENTER":"72.5492","LAUNCH_DATE":"2020-02-17","MEAN_MOTION_DDOT":"0.0000000000000","REF_FRAME":"TEME","RA_OF_ASC_NODE":"245.8648","CENTER_NAME":"EARTH","REV_AT_EPOCH":"15816","TIME_SYSTEM":"UTC","COUNTRY_CODE":"US","MEAN_ANOMALY":"287.5631","TLE_LINE2":"2 45230  53.0548 245.8648 0001228  72.5492 287.5631 15.06406035158163","OBJECT_ID":"2020-012BE","SEMIMAJOR_AXIS":"6925.330","EPHEMERIS_TYPE":"0","ECCENTRICITY":"0.00012280","DECAY_DATE":null,"CLASSIFICATION_TYPE":"U","MEAN_MOTION_DOT":"0.00001795","MEAN_MOTION":"15.06406035","GP_ID":"220965622","FILE":"3711774","PERIAPSIS":"546.345"},{"TLE_LINE1":"1 45232U 20012BG  22352.97710489  .00000918  00000-0  80557-4 0  9997","SITE":"AFETR","INCLINATION":"53.0550","ELEMENT_SET_NO":"999","RCS_SIZE":"LARGE","OBJECT_NAME":"STARLINK-1235","MEAN_ELEMENT_THEORY":"SGP4","PERIOD":"95.593","OBJECT_TYPE":"PAYLOAD","BSTAR":"0.00008055700000","ARG_OF_PERICENTER":"61.8550","EPOCH":"2022-12-18T23:27:01.862496","NORAD_CAT_ID":"45232","APOAPSIS":"548.352","TIME_SYSTEM":"UTC","MEAN_MOTION_DDOT":"0.0000000000000","REF_FRAME":"TEME","RA_OF_ASC_NODE":"249.0889","LAUNCH_DATE":"2020-02-17","REV_AT_EPOCH":"15804","CENTER_NAME":"EARTH","DECAY_DATE":null,"ECCENTRICITY":"0.00015920","GP_ID":"220930707","MEAN_MOTION":"15.06388291","FILE":"3711365","PERIAPSIS":"546.147","MEAN_MOTION_DOT":"0.00000918","CLASSIFICATION_TYPE":"U","TLE_LINE2":"2 45232  53.0550 249.0889 0001592  61.8550 298.2600 15.06388291158046","COUNTRY_CODE":"US","MEAN_ANOMALY":"298.2600","EPHEMERIS_TYPE":"0","SEMIMAJOR_AXIS":"6925.384","OBJECT_ID":"2020-012BG"}];
